IRIDIUM 7 [-]           
1 24793U 97020B   23246.32275066  .00000404  00000+0  13549-3 0  9993
2 24793  86.3907  90.3576 0002319  90.2331 269.9131 14.34877858378243
IRIDIUM 5 [-]           
1 24795U 97020D   23246.62359045  .00003637  00000+0  37174-3 0  9999
2 24795  86.3984  21.7972 0127521 301.8114  57.0741 14.84355944388393
IRIDIUM 4 [-]           
1 24796U 97020E   23247.07020919  .00000419  00000+0  13827-3 0  9999
2 24796  86.3902  87.3529 0002098  92.5643 267.5793 14.35782727378890
IRIDIUM 914 [-]         
1 24836U 97030A   23247.03003005  .00000446  00000+0  13655-3 0  9997
2 24836  86.3887  97.8816 0001960 142.5181 217.6154 14.39575484375362
IRIDIUM 16 [-]          
1 24841U 97030F   23247.07185836  .00000475  00000+0  15208-3 0  9998
2 24841  86.4023 119.1077 0004017  65.9743 294.1875 14.37475548373542
IRIDIUM 920 [-]         
1 24871U 97034C   23246.91558322  .00000505  00000+0  15319-3 0  9998
2 24871  86.3988 129.5970 0013778  74.3721 285.8998 14.40291464372915
